NORAD_CAT_ID,OBJECT_NAME,OBJECT_TYPE,EPOCH,MEAN_MOTION,ECCENTRICITY,INCLINATION,RA_OF_ASC_NODE,ARG_OF_PERICENTER,MEAN_ANOMALY,BSTAR,MEAN_MOTION_DOT,MEAN_MOTION_DDOT,TLE_LINE0,TLE_LINE1,TLE_LINE2,SEMIMAJOR_AXIS,PERIOD,APOGEE,PERIGEE,DECAYED
56771.0,STARLINK-6339,PAYLOAD,2024-04-24 16:13:32,14.98647923,0.0002309,70.004,229.2622,249.9763,110.1148,0.00059082,7.022e-05,0.0,0 STARLINK-6339,1 56771U 23078E   24115.67607062  .00007022  00000-0  59082-3 0  9991,2 56771  70.0040 229.2622 0002309 249.9763 110.1148 14.98647923 51205,6949.21,96.087,572.679,569.47,0.0
56771.0,STARLINK-6339,PAYLOAD,2024-04-25 13:02:56,14.98706848,0.0002769,70.0027,227.072,267.1508,92.9334,0.00057574,6.85e-05,0.0,0 STARLINK-6339,1 56771U 23078E   24116.54370949  .00006850  00000-0  57574-3 0  9991,2 56771  70.0027 227.0720 0002769 267.1508  92.9334 14.98706848 51592,6949.028,96.083,572.817,568.969,0.0
56771.0,STARLINK-6339,PAYLOAD,2024-04-25 14:39:03,14.98705648,0.0002468,70.0036,226.9045,260.6262,99.4618,0.00055868,6.644e-05,0.0,0 STARLINK-6339,1 56771U 23078E   24116.61045362  .00006644  00000-0  55868-3 0  9992,2 56771  70.0036 226.9045 0002468 260.6262  99.4618 14.98705648 51348,6949.031,96.083,572.611,569.181,0.0
56771.0,STARLINK-6339,PAYLOAD,2024-04-25 16:15:09,14.98707143,0.0002437,70.0036,226.7362,263.9478,96.1403,0.00057262,6.813e-05,0.0,0 STARLINK-6339,1 56771U 23078E   24116.67719585  .00006813  00000-0  57262-3 0  9991,2 56771  70.0036 226.7362 0002437 263.9478  96.1403 14.98707143 51358,6949.027,96.083,572.585,569.198,0.0
56771.0,STARLINK-6339,PAYLOAD,2024-04-26 13:05:02,14.98426906,0.0002863,70.0029,224.5476,264.8428,95.2405,-0.0028088,-0.00033531,0.0,0 STARLINK-6339,1 56771U 23078E   24117.54516425 -.00033531  00000-0 -28088-2 0  9998,2 56771  70.0029 224.5476 0002863 264.8428  95.2405 14.98426906 51740,6949.893,96.101,573.748,569.768,0.0
56771.0,STARLINK-6339,PAYLOAD,2024-04-26 14:41:15,14.98349205,0.0002974,70.0032,224.3799,269.6979,90.3839,-0.0036162,-0.00042999,0.0,0 STARLINK-6339,1 56771U 23078E   24117.61198741 -.00042999  00000-0 -36162-2 0  9993,2 56771  70.0032 224.3799 0002974 269.6979  90.3839 14.98349205 51492,6950.134,96.106,574.065,569.932,0.0
56771.0,STARLINK-6339,PAYLOAD,2024-04-26 22:42:07,14.98191663,0.0003589,70.0024,223.5373,276.7677,83.3074,-0.005115,-0.00060388,0.0,0 STARLINK-6339,1 56771U 23078E   24117.94592204 -.00060388  00000-0 -51150-2 0  9997,2 56771  70.0024 223.5373 0003589 276.7677  83.3074 14.98191663 51541,6950.621,96.116,574.98,569.991,0.0
56771.0,STARLINK-6339,PAYLOAD,2024-04-27 11:31:32,14.97993519,0.0002959,70.0023,222.1933,269.6741,90.4079,-0.0068168,-0.00079814,0.0,0 STARLINK-6339,1 56771U 23078E   24118.48023747 -.00079814  00000-0 -68168-2 0  9999,2 56771  70.0023 222.1933 0002959 269.6741  90.4079 14.97993519 51880,6951.234,96.129,575.155,571.042,0.0
56771.0,STARLINK-6339,PAYLOAD,2024-04-27 16:20:01,14.97968931,0.0003028,70.0022,221.6883,266.8805,93.2008,-0.0066852,-0.00078243,0.0,0 STARLINK-6339,1 56771U 23078E   24118.68057125 -.00078243  00000-0 -66852-2 0  9991,2 56771  70.0022 221.6883 0003028 266.8805  93.2008 14.97968931 51653,6951.31,96.13,575.28,571.07,0.0
56771.0,STARLINK-6339,PAYLOAD,2024-04-28 12:00:00,14.97611997,0.0003506,70.0012,219.6221,276.5585,180.8542,0.039162,0.00486782,0.0,0 STARLINK-6339,1 56771U 23078E   24119.50001157  .00486782  00000-0  39162-1 0  9999,2 56771  70.0012 219.6221 0003506 276.5585 180.8542 14.97611997 52035,6952.414,96.153,576.717,571.842,0.0
56771.0,STARLINK-6339,PAYLOAD,2024-04-28 14:00:01,14.97676197,0.0003527,70.0011,219.4122,278.7702,267.8131,0.041696,0.00521362,0.0,0 STARLINK-6339,1 56771U 23078E   24119.58334491  .00521362  00000-0  41696-1 0  9996,2 56771  70.0011 219.4122 0003527 278.7702 267.8131 14.97676197  5828,6952.215,96.149,576.533,571.628,0.0
56771.0,STARLINK-6339,PAYLOAD,2024-04-28 22:00:00,14.98075783,0.000343,70.0008,218.5723,277.9304,265.5353,0.025318,0.00313874,0.0,0 STARLINK-6339,1 56771U 23078E   24119.91667824  .00313874  00000-0  25318-1 0  9992,2 56771  70.0008 218.5723 0003430 277.9304 265.5353 14.98075783  5672,6950.979,96.123,575.228,570.46,0.0
56771.0,STARLINK-6339,PAYLOAD,2024-04-29 00:23:06,14.97895448,0.0004381,70.0007,218.3213,274.3564,85.7094,0.00044621,5.176e-05,0.0,0 STARLINK-6339,1 56771U 23078E   24120.01604260  .00005176  00000-0  44621-3 0  9993,2 56771  70.0007 218.3213 0004381 274.3564  85.7094 14.97895448 52110,6951.537,96.135,576.448,570.357,0.0
56771.0,STARLINK-6339,PAYLOAD,2024-04-29 12:00:00,14.98327417,0.000333,70.001,217.1018,276.5696,172.3002,-0.001685,-0.0002014,0.0,0 STARLINK-6339,1 56771U 23078E   24120.50001157 -.00020140  00000-0 -16850-2 0  9995,2 56771  70.0010 217.1018 0003330 276.5696 172.3002 14.98327417 52183,6950.201,96.107,574.38,569.751,0.0
56771.0,STARLINK-6339,PAYLOAD,2024-04-29 14:00:01,14.9830877,0.0003324,70.0009,216.8917,278.4121,259.8315,0.0014445,0.00017176,0.0,0 STARLINK-6339,1 56771U 23078E   24120.58334491  .00017176  00000-0  14445-2 0  9994,2 56771  70.0009 216.8917 0003324 278.4121 259.8315 14.98308770  5774,6950.259,96.108,574.434,569.813,0.0
56771.0,STARLINK-6339,PAYLOAD,2024-04-29 16:24:29,14.9798862,0.0003183,70.0003,216.6389,277.396,82.6837,0.0044553,0.00053001,0.0,0 STARLINK-6339,1 56771U 23078E   24120.68367143  .00053001  00000-0  44553-2 0  9995,2 56771  70.0003 216.6389 0003183 277.3960  82.6837 14.97988620 52210,6951.249,96.129,575.326,570.901,0.0
56771.0,STARLINK-6339,PAYLOAD,2024-04-30 05:13:41,14.9804189,0.0003245,70.0,215.2915,279.8622,80.2171,0.0040967,0.00048766,0.0,0 STARLINK-6339,1 56771U 23078E   24121.21784602  .00048766  00000-0  40967-2 0  9995,2 56771  70.0000 215.2915 0003245 279.8622  80.2171 14.98041890 52291,6951.084,96.125,575.205,570.693,0.0
56771.0,STARLINK-6339,PAYLOAD,2024-04-30 10:02:08,14.98060743,0.0003017,69.9999,214.7866,280.8604,79.2215,0.0039868,0.00047469,0.0,0 STARLINK-6339,1 56771U 23078E   24121.41815378  .00047469  00000-0  39868-2 0  9999,2 56771  69.9999 214.7866 0003017 280.8604  79.2215 14.98060743 52322,6951.026,96.124,574.988,570.794,0.0
56771.0,STARLINK-6339,PAYLOAD,2024-04-30 14:50:34,14.98079389,0.0003081,69.9999,214.282,277.694,82.3869,0.0038743,0.0004614,0.0,0 STARLINK-6339,1 56771U 23078E   24121.61845654  .00046140  00000-0  38743-2 0  9997,2 56771  69.9999 214.2820 0003081 277.6940  82.3869 14.98079389 52095,6950.968,96.123,574.975,570.691,0.0
56771.0,STARLINK-6339,PAYLOAD,2024-04-30 16:26:43,14.98084689,0.0003047,69.9999,214.1137,276.8327,83.2485,0.0038542,0.00045905,0.0,0 STARLINK-6339,1 56771U 23078E   24121.68522371  .00045905  00000-0  38542-2 0  9997,2 56771  69.9999 214.1137 0003047 276.8327  83.2485 14.98084689 52360,6950.952,96.123,574.935,570.699,0.0
56771.0,STARLINK-6339,PAYLOAD,2024-04-30 22:51:16,14.9813915,0.0003267,69.9999,213.4405,276.3751,83.7036,0.0031362,0.00037343,0.0,0 STARLINK-6339,1 56771U 23078E   24121.95227995  .00037343  00000-0  31362-2 0  9991,2 56771  69.9999 213.4405 0003267 276.3751  83.7036 14.98139150 52406,6950.783,96.119,574.919,570.377,0.0
56771.0,STARLINK-6339,PAYLOAD,2024-05-01 14:52:35,14.98333519,0.0003267,69.9999,211.7574,277.7019,82.3769,0.00011994,1.338e-05,0.0,0 STARLINK-6339,1 56771U 23078E   24122.61985994  .00001338  00000-0  11994-3 0  9990,2 56771  69.9999 211.7574 0003267 277.7019  82.3769 14.98333519 52241,6950.182,96.107,574.318,569.776,0.0
56771.0,STARLINK-6339,PAYLOAD,2024-05-02 05:17:49,14.9828736,0.0003212,70.0003,210.2435,272.4432,87.636,0.00059345,6.987e-05,0.0,0 STARLINK-6339,1 56771U 23078E   24123.22071454  .00006987  00000-0  59345-3 0  9992,2 56771  70.0003 210.2435 0003212 272.4432  87.6360 14.98287360 52596,6950.325,96.11,574.422,569.957,0.0
56771.0,STARLINK-6339,PAYLOAD,2024-05-02 11:42:21,14.98314416,0.0003237,70.0,209.5701,275.3181,84.7608,0.00015409,1.745e-05,0.0,0 STARLINK-6339,1 56771U 23078E   24123.48775249  .00001745  00000-0  15409-3 0  9993,2 56771  70.0000 209.5701 0003237 275.3181  84.7608 14.98314416 52631,6950.241,96.108,574.356,569.856,0.0
56771.0,STARLINK-6339,PAYLOAD,2024-05-02 14:54:37,14.98325495,0.0003133,70.0002,209.2337,274.2807,85.7994,-2.9031e-05,-4.39e-06,0.0,0 STARLINK-6339,1 56771U 23078E   24123.62126978 -.00000439  00000-0 -29031-4 0  9996,2 56771  70.0002 209.2337 0003133 274.2807  85.7994 14.98325495 52394,6950.207,96.107,574.249,569.894,0.0
56771.0,STARLINK-6339,PAYLOAD,2024-05-03 13:20:29,14.98333495,0.0003065,70.0002,206.8774,272.2373,87.8435,1.7645e-05,1.18e-06,0.0,0 STARLINK-6339,1 56771U 23078E   24124.55590169  .00000118  00000-0  17645-4 0  9996,2 56771  70.0002 206.8774 0003065 272.2373  87.8435 14.98333495 52798,6950.182,96.107,574.177,569.917,0.0
56771.0,STARLINK-6339,PAYLOAD,2024-05-03 14:56:37,14.98333331,0.0003067,70.0002,206.7091,272.2404,87.8403,1.5591e-05,9.3e-07,0.0,0 STARLINK-6339,1 56771U 23078E   24124.62266171  .00000093  00000-0  15591-4 0  9997,2 56771  70.0002 206.7091 0003067 272.2404  87.8403 14.98333331 52543,6950.183,96.107,574.179,569.916,0.0
56771.0,STARLINK-6339,PAYLOAD,2024-05-04 05:21:51,14.98319147,0.0003104,70.0,205.1936,271.6667,88.4136,-2.326e-05,-3.7e-06,0.0,0 STARLINK-6339,1 56771U 23078E   24125.22351183 -.00000370  00000-0 -23260-4 0  9994,2 56771  70.0000 205.1936 0003104 271.6667  88.4136 14.98319147 52895,6950.226,96.108,574.249,569.934,0.0
56771.0,STARLINK-6339,PAYLOAD,2024-05-05 05:23:52,14.98327912,0.000317,69.9997,202.6685,272.0297,88.0499,-3.3998e-05,-4.99e-06,0.0,0 STARLINK-6339,1 56771U 23078E   24126.22491150 -.00000499  00000-0 -33998-4 0  9995,2 56771  69.9997 202.6685 0003170 272.0297  88.0499 14.98327912 53042,6950.199,96.107,574.268,569.861,0.0
56771.0,STARLINK-6339,PAYLOAD,2024-05-05 13:24:32,14.98329109,0.0003135,69.9996,201.8263,270.4733,89.6067,-3.0342e-05,-4.55e-06,0.0,0 STARLINK-6339,1 56771U 23078E   24126.55871111 -.00000455  00000-0 -30342-4 0  9992,2 56771  69.9996 201.8263 0003135 270.4733  89.6067 14.98329109 52836,6950.196,96.107,574.24,569.882,0.0
